NORAD_CAT_ID,OBJECT_NAME,OBJECT_TYPE,EPOCH,MEAN_MOTION,ECCENTRICITY,INCLINATION,RA_OF_ASC_NODE,ARG_OF_PERICENTER,MEAN_ANOMALY,BSTAR,MEAN_MOTION_DOT,MEAN_MOTION_DDOT,TLE_LINE0,TLE_LINE1,TLE_LINE2,SEMIMAJOR_AXIS,PERIOD,APOGEE,PERIGEE,DECAYED
53176.0,STARLINK-4294,PAYLOAD,2024-01-15 09:51:56,15.08839591,0.0001685,53.2176,69.8011,79.9699,280.1483,0.00010034,1.309e-05,0.0,0 STARLINK-4294,1 53176U 22083AW  24015.41106771  .00001309  00000-0  10034-3 0  9990,2 53176  53.2176  69.8011 0001685  79.9699 280.1483 15.08839591 83806,6917.882,95.438,540.912,538.581,0.0
53176.0,STARLINK-4294,PAYLOAD,2024-01-15 19:24:14,15.08847497,0.0001488,53.2165,68.0145,79.9779,280.1381,4.0471e-05,3.56e-06,0.0,0 STARLINK-4294,1 53176U 22083AW  24015.80850196  .00000356  00000-0  40471-4 0  9990,2 53176  53.2165  68.0145 0001488  79.9779 280.1381 15.08847497 83220,6917.857,95.437,540.752,538.693,0.0
53176.0,STARLINK-4294,PAYLOAD,2024-01-16 03:21:11,15.08827846,0.0001227,53.2176,66.529,62.6577,297.454,-5.2986e-05,-1.131e-05,0.0,0 STARLINK-4294,1 53176U 22083AW  24016.13971781 -.00001131  00000-0 -52986-4 0  9999,2 53176  53.2176  66.5290 0001227  62.6577 297.4540 15.08827846 83912,6917.918,95.438,540.631,538.934,0.0
53176.0,STARLINK-4294,PAYLOAD,2024-01-16 09:42:43,15.08836915,0.0001133,53.2183,65.3373,91.8222,268.29,4.3129e-05,3.99e-06,0.0,0 STARLINK-4294,1 53176U 22083AW  24016.40466954  .00000399  00000-0  43129-4 0  9992,2 53176  53.2183  65.3373 0001133  91.8222 268.2900 15.08836915 83953,6917.89,95.438,540.539,538.971,0.0
53176.0,STARLINK-4294,PAYLOAD,2024-01-17 09:33:30,15.08841603,0.0001479,53.2166,60.8759,101.9394,258.1764,6.115e-05,6.85e-06,0.0,0 STARLINK-4294,1 53176U 22083AW  24017.39826749  .00000685  00000-0  61150-4 0  9995,2 53176  53.2166  60.8759 0001479 101.9394 258.1764 15.08841603 83460,6917.875,95.437,540.764,538.717,0.0
53176.0,STARLINK-4294,PAYLOAD,2024-01-18 03:02:45,15.08829714,0.0001396,53.2165,57.6054,96.5258,263.5893,9.4463e-05,1.215e-05,0.0,0 STARLINK-4294,1 53176U 22083AW  24018.12691489  .00001215  00000-0  94463-4 0  9991,2 53176  53.2165  57.6054 0001396  96.5258 263.5893 15.08829714 84213,6917.912,95.438,540.743,538.811,0.0
53176.0,STARLINK-4294,PAYLOAD,2024-01-18 09:24:17,15.08836729,0.0001449,53.2182,56.4202,88.347,271.7688,0.00011023,1.467e-05,0.0,0 STARLINK-4294,1 53176U 22083AW  24018.39187177  .00001467  00000-0  11023-3 0  9993,2 53176  53.2182  56.4202 0001449  88.3470 271.7688 15.08836729 83618,6917.89,95.438,540.758,538.753,0.0
53176.0,STARLINK-4294,PAYLOAD,2024-01-19 10:50:27,15.08842896,0.0001368,53.2162,51.6575,72.6768,287.4374,7.6952e-05,9.37e-06,0.0,0 STARLINK-4294,1 53176U 22083AW  24019.45171140  .00000937  00000-0  76952-4 0  9998,2 53176  53.2162  51.6575 0001368  72.6768 287.4374 15.08842896 84419,6917.872,95.437,540.683,538.79,0.0
53176.0,STARLINK-4294,PAYLOAD,2024-01-20 09:05:52,15.0883511,0.000154,53.2174,47.4971,86.6998,273.417,4.8981e-05,4.92e-06,0.0,0 STARLINK-4294,1 53176U 22083AW  24020.37908027  .00000492  00000-0  48981-4 0  9990,2 53176  53.2174  47.4971 0001540  86.6998 273.4170 15.08835110 84552,6917.895,95.438,540.826,538.695,0.0
53176.0,STARLINK-4294,PAYLOAD,2024-01-20 12:16:38,15.08841168,0.0001393,53.2166,46.8953,83.942,276.1731,3.7535e-05,3.1e-06,0.0,0 STARLINK-4294,1 53176U 22083AW  24020.51155602  .00000310  00000-0  37535-4 0  9991,2 53176  53.2166  46.8953 0001393  83.9420 276.1731 15.08841168 83936,6917.877,95.437,540.705,538.778,0.0
53176.0,STARLINK-4294,PAYLOAD,2024-01-21 05:45:53,15.08837348,0.0001348,53.2162,43.6262,90.0064,270.1083,6.4975e-05,7.46e-06,0.0,0 STARLINK-4294,1 53176U 22083AW  24021.24019913  .00000746  00000-0  64975-4 0  9997,2 53176  53.2162  43.6262 0001348  90.0064 270.1083 15.08837348 84045,6917.888,95.438,540.686,538.821,0.0
53176.0,STARLINK-4294,PAYLOAD,2024-01-21 08:56:39,15.08841059,0.00014,53.217,43.0312,76.7373,283.3775,9.6289e-05,1.245e-05,0.0,0 STARLINK-4294,1 53176U 22083AW  24021.37267701  .00001245  00000-0  96289-4 0  9999,2 53176  53.2170  43.0312 0001400  76.7373 283.3775 15.08841059 84067,6917.877,95.437,540.711,538.774,0.0
53176.0,STARLINK-4294,PAYLOAD,2024-01-22 00:50:30,15.08838463,0.0001306,53.2171,40.0589,106.6226,253.491,5.6904e-05,6.18e-06,0.0,0 STARLINK-4294,1 53176U 22083AW  24022.03507914  .00000618  00000-0  56904-4 0  9999,2 53176  53.2171  40.0589 0001306 106.6226 253.4910 15.08838463 84802,6917.885,95.438,540.654,538.847,0.0
53176.0,STARLINK-4294,PAYLOAD,2024-01-22 07:12:02,15.08847193,0.0001404,53.2168,38.8694,114.4046,245.7093,4.3462e-05,4.04e-06,0.0,0 STARLINK-4294,1 53176U 22083AW  24022.30003463  .00000404  00000-0  43462-4 0  9997,2 53176  53.2168  38.8694 0001404 114.4046 245.7093 15.08847193 84206,6917.858,95.437,540.695,538.752,0.0
53176.0,STARLINK-4294,PAYLOAD,2024-01-22 08:47:25,15.08848153,0.0001405,53.2173,38.5727,115.5457,244.5681,7.0922e-05,8.41e-06,0.0,0 STARLINK-4294,1 53176U 22083AW  24022.36627284  .00000841  00000-0  70922-4 0  9992,2 53176  53.2173  38.5727 0001405 115.5457 244.5681 15.08848153 84853,6917.855,95.437,540.692,538.749,0.0
53176.0,STARLINK-4294,PAYLOAD,2024-01-23 07:02:48,15.08863607,0.0001524,53.2175,34.4093,92.4506,267.6661,0.00021058,3.067e-05,0.0,0 STARLINK-4294,1 53176U 22083AW  24023.29361340  .00003067  00000-0  21058-3 0  9991,2 53176  53.2175  34.4093 0001524  92.4506 267.6661 15.08863607 84996,6917.808,95.436,540.728,538.619,0.0
53176.0,STARLINK-4294,PAYLOAD,2024-01-24 03:42:50,15.08835595,0.0001418,53.2178,30.5436,100.289,259.8262,-2.6681e-05,-7.12e-06,0.0,0 STARLINK-4294,1 53176U 22083AW  24024.15475646 -.00000712  00000-0 -26681-4 0  9996,2 53176  53.2178  30.5436 0001418 100.2890 259.8262 15.08835595 85124,6917.894,95.438,540.74,538.778,0.0
53176.0,STARLINK-4294,PAYLOAD,2024-01-24 06:53:37,15.08834503,0.0001339,53.2177,29.9487,103.8826,256.2315,-2.3786e-05,-6.66e-06,0.0,0 STARLINK-4294,1 53176U 22083AW  24024.28723873 -.00000666  00000-0 -23786-4 0  9999,2 53176  53.2177  29.9487 0001339 103.8826 256.2315 15.08834503 84500,6917.897,95.438,540.688,538.836,0.0
53176.0,STARLINK-4294,PAYLOAD,2024-01-25 03:33:40,15.08821424,0.0001464,53.2195,26.0902,89.1981,270.9179,-0.00033707,-5.646e-05,0.0,0 STARLINK-4294,1 53176U 22083AW  24025.14838506 -.00005646  00000-0 -33707-3 0  9991,2 53176  53.2195  26.0902 0001464  89.1981 270.9179 15.08821424 85271,6917.937,95.439,540.815,538.789,0.0
53176.0,STARLINK-4294,PAYLOAD,2024-01-25 06:44:24,15.08852031,0.0001603,53.219,25.4886,85.1636,274.954,-7.4439e-05,-1.473e-05,0.0,0 STARLINK-4294,1 53176U 22083AW  24025.28083888 -.00001473  00000-0 -74439-4 0  9993,2 53176  53.2190  25.4886 0001603  85.1636 274.9540 15.08852031 85294,6917.844,95.437,540.818,538.6,0.0
53176.0,STARLINK-4294,PAYLOAD,2024-01-26 03:24:23,15.08851035,0.000128,53.2185,21.6247,81.7039,278.4099,0.0003474,5.247e-05,0.0,0 STARLINK-4294,1 53176U 22083AW  24026.14194265  .00005247  00000-0  34740-3 0  9992,2 53176  53.2185  21.6247 0001280  81.7039 278.4099 15.08851035 85423,6917.847,95.437,540.597,538.826,0.0
53176.0,STARLINK-4294,PAYLOAD,2024-01-26 06:35:12,15.08822666,0.0001645,53.219,21.0346,91.1813,268.9367,0.00015411,2.164e-05,0.0,0 STARLINK-4294,1 53176U 22083AW  24026.27444584  .00002164  00000-0  15411-3 0  9997,2 53176  53.2190  21.0346 0001645  91.1813 268.9367 15.08822666 85445,6917.933,95.439,540.936,538.66,0.0
53176.0,STARLINK-4294,PAYLOAD,2024-01-27 06:25:59,15.08841544,0.0001671,53.2189,16.5694,106.1506,253.967,-3.9301e-05,-9.14e-06,0.0,0 STARLINK-4294,1 53176U 22083AW  24027.26804963 -.00000914  00000-0 -39301-4 0  9996,2 53176  53.2189  16.5694 0001671 106.1506 253.9670 15.08841544 85596,6917.876,95.437,540.897,538.585,0.0
53176.0,STARLINK-4294,PAYLOAD,2024-01-28 07:52:09,15.08837176,0.0001762,53.2189,11.8053,95.5654,264.5539,0.00018995,2.736e-05,0.0,0 STARLINK-4294,1 53176U 22083AW  24028.32788501  .00002736  00000-0  18995-3 0  9990,2 53176  53.2189  11.8053 0001762  95.5654 264.5539 15.08837176 85755,6917.889,95.438,540.973,538.535,0.0
53176.0,STARLINK-4294,PAYLOAD,2024-01-29 02:56:47,15.08837904,0.0001694,53.2192,8.2325,100.9591,259.1591,7.5108e-05,9.07e-06,0.0,0 STARLINK-4294,1 53176U 22083AW  24029.12277008  .00000907  00000-0  75108-4 0  9992,2 53176  53.2192   8.2325 0001694 100.9591 259.1591 15.08837904 85876,6917.887,95.438,540.924,538.58,0.0
53176.0,STARLINK-4294,PAYLOAD,2024-01-29 07:42:56,15.08845479,0.000173,53.2191,7.3446,94.8497,265.2692,0.00014199,1.973e-05,0.0,0 STARLINK-4294,1 53176U 22083AW  24029.32148514  .00001973  00000-0  14199-3 0  9999,2 53176  53.2191   7.3446 0001730  94.8497 265.2692 15.08845479 85906,6917.864,95.437,540.925,538.532,0.0
53176.0,STARLINK-4294,PAYLOAD,2024-01-30 04:22:57,15.08843027,0.0002125,53.2204,3.4726,69.9809,290.1412,7.758e-05,9.47e-06,0.0,0 STARLINK-4294,1 53176U 22083AW  24030.18260874  .00000947  00000-0  77580-4 0  9993,2 53176  53.2204   3.4726 0002125  69.9809 290.1412 15.08843027 86037,6917.871,95.437,541.206,538.266,0.0
53176.0,STARLINK-4294,PAYLOAD,2024-01-30 07:33:43,15.08847239,0.0001889,53.2205,2.8784,92.4984,267.6225,3.7624e-05,3.11e-06,0.0,0 STARLINK-4294,1 53176U 22083AW  24030.31508518  .00000311  00000-0  37624-4 0  9998,2 53176  53.2205   2.8784 0001889  92.4984 267.6225 15.08847239 85417,6917.858,95.437,541.03,538.416,0.0
53176.0,STARLINK-4294,PAYLOAD,2024-01-31 04:13:44,15.08851838,0.0001671,53.2196,359.013,82.5015,277.6167,2.1766e-06,-2.53e-06,0.0,0 STARLINK-4294,1 53176U 22083AW  24031.17620376 -.00000253  00000-0  21766-5 0  9997,2 53176  53.2196 359.0130 0001671  82.5015 277.6167 15.08851838 85542,6917.844,95.437,540.865,538.553,0.0
53176.0,STARLINK-4294,PAYLOAD,2024-01-31 21:42:59,15.08847504,0.0001927,53.2181,355.7567,96.1748,263.9464,-5.2875e-05,-1.13e-05,0.0,0 STARLINK-4294,1 53176U 22083AW  24031.90484962 -.00001130  00000-0 -52875-4 0  9997,2 53176  53.2181 355.7567 0001927  96.1748 263.9464 15.08847504 85656,6917.857,95.437,541.056,538.389,0.0
